start=new Date('2023-01-28T00:00:00.000Z').valueOf();
sats=[{"TIME_SYSTEM":"UTC","MEAN_ELEMENT_THEORY":"SGP4","OBJECT_ID":"2022-084U","NORAD_CAT_ID":"53207","OBJECT_TYPE":"PAYLOAD","MEAN_ANOMALY":"257.0366","EPOCH":"2023-01-27T17:31:54.260832","MEAN_MOTION_DDOT":"0.0000000000000","ARG_OF_PERICENTER":"103.0922","ECCENTRICITY":"0.00005690","ELEMENT_SET_NO":"999","PERIOD":"95.921","TLE_LINE1":"1 53207U 22084U   23027.73048913  .00004520  00000-0  35647-3 0  9991","CENTER_NAME":"EARTH","MEAN_MOTION_DOT":"0.00004520","RCS_SIZE":"LARGE","GP_ID":"223841440","CLASSIFICATION_TYPE":"U","SEMIMAJOR_AXIS":"6941.203","OBJECT_NAME":"STARLINK-4413","PERIAPSIS":"562.673","COUNTRY_CODE":"US","EPHEMERIS_TYPE":"0","REF_FRAME":"TEME","BSTAR":"0.00035647000000","REV_AT_EPOCH":"2873","APOAPSIS":"563.463","MEAN_MOTION":"15.01241890","INCLINATION":"97.6594","LAUNCH_DATE":"2022-07-22","FILE":"3763218","DECAY_DATE":null,"RA_OF_ASC_NODE":"90.7932","TLE_LINE2":"2 53207  97.6594  90.7932 0000569 103.0922 257.0366 15.01241890 28736","SITE":"AFWTR"},{"RA_OF_ASC_NODE":"90.7985","TLE_LINE2":"2 53208  97.6585  90.7985 0000667 235.0469 125.0693 15.01260475 28733","SITE":"AFWTR","FILE":"3763218","DECAY_DATE":null,"INCLINATION":"97.6585","MEAN_MOTION":"15.01260475","LAUNCH_DATE":"2022-07-22","REV_AT_EPOCH":"2873","APOAPSIS":"563.473","EPHEMERIS_TYPE":"0","REF_FRAME":"TEME","BSTAR":"0.00004887500000","COUNTRY_CODE":"US","SEMIMAJOR_AXIS":"6941.145","OBJECT_NAME":"STARLINK-4425","PERIAPSIS":"562.547","CLASSIFICATION_TYPE":"U","GP_ID":"223840197","MEAN_MOTION_DOT":"0.00000569","RCS_SIZE":"LARGE","ELEMENT_SET_NO":"999","PERIOD":"95.919","TLE_LINE1":"1 53208U 22084V   23027.73788494  .00000569  00000-0  48875-4 0  9994","CENTER_NAME":"EARTH","EPOCH":"2023-01-27T17:42:33.258816","MEAN_MOTION_DDOT":"0.0000000000000","ARG_OF_PERICENTER":"235.0469","ECCENTRICITY":"0.00006670","NORAD_CAT_ID":"53208","OBJECT_TYPE":"PAYLOAD","MEAN_ANOMALY":"125.0693","MEAN_ELEMENT_THEORY":"SGP4","TIME_SYSTEM":"UTC","OBJECT_ID":"2022-084V"},{"EPOCH":"2023-01-27T19:05:33.655488","ECCENTRICITY":"0.00010630","ARG_OF_PERICENTER":"97.8986","MEAN_MOTION_DDOT":"0.0000000000000","TLE_LINE1":"1 53209U 22084W   23027.79552842  .00000204  00000-0  20473-4 0  9997","ELEMENT_SET_NO":"999","PERIOD":"95.920","CENTER_NAME":"EARTH","MEAN_ELEMENT_THEORY":"SGP4","TIME_SYSTEM":"UTC","OBJECT_ID":"2022-084W","NORAD_CAT_ID":"53209","MEAN_ANOMALY":"262.2359","OBJECT_TYPE":"PAYLOAD","CLASSIFICATION_TYPE":"U","MEAN_MOTION_DOT":"0.00000204","RCS_SIZE":"LARGE","GP_ID":"223814514","COUNTRY_CODE":"US","EPHEMERIS_TYPE":"0","BSTAR":"0.00002047300000","REF_FRAME":"TEME","OBJECT_NAME":"STARLINK-4423","SEMIMAJOR_AXIS":"6941.154","PERIAPSIS":"562.281","FILE":"3763182","DECAY_DATE":null,"SITE":"AFWTR","TLE_LINE2":"2 53209  97.6599  90.8564 0001063  97.8986 262.2359 15.01257742 29122","RA_OF_ASC_NODE":"90.8564","APOAPSIS":"563.757","REV_AT_EPOCH":"2912","INCLINATION":"97.6599","MEAN_MOTION":"15.01257742","LAUNCH_DATE":"2022-07-22"},{"OBJECT_TYPE":"PAYLOAD","MEAN_ANOMALY":"260.0029","NORAD_CAT_ID":"53210","OBJECT_ID":"2022-084X","TIME_SYSTEM":"UTC","MEAN_ELEMENT_THEORY":"SGP4","CENTER_NAME":"EARTH","PERIOD":"95.919","ELEMENT_SET_NO":"999","TLE_LINE1":"1 53210U 22084X   23027.73418555  .00000487  00000-0  42506-4 0  9999","MEAN_MOTION_DDOT":"0.0000000000000","ARG_OF_PERICENTER":"100.1211","ECCENTRICITY":"0.00001400","EPOCH":"2023-01-27T17:37:13.631520","GP_ID":"223841192","RCS_SIZE":"LARGE","MEAN_MOTION_DOT":"0.00000487","CLASSIFICATION_TYPE":"U","PERIAPSIS":"562.916","SEMIMAJOR_AXIS":"6941.148","OBJECT_NAME":"STARLINK-4427","REF_FRAME":"TEME","BSTAR":"0.00004250600000","EPHEMERIS_TYPE":"0","COUNTRY_CODE":"US","LAUNCH_DATE":"2022-07-22","MEAN_MOTION":"15.01259525","INCLINATION":"97.6591","APOAPSIS":"563.110","REV_AT_EPOCH":"2927","RA_OF_ASC_NODE":"90.7940","SITE":"AFWTR","TLE_LINE2":"2 53210  97.6591  90.7940 0000140 100.1211 260.0029 15.01259525 29274","DECAY_DATE":null,"FILE":"3763218"},{"ECCENTRICITY":"0.00009630","ARG_OF_PERICENTER":"114.0210","MEAN_MOTION_DDOT":"0.0000000000000","EPOCH":"2023-01-27T17:23:54.053952","CENTER_NAME":"EARTH","TLE_LINE1":"1 53211U 22084Y   23027.72493118  .00001640  00000-0  13230-3 0  9990","ELEMENT_SET_NO":"999","PERIOD":"95.920","OBJECT_ID":"2022-084Y","MEAN_ELEMENT_THEORY":"SGP4","TIME_SYSTEM":"UTC","MEAN_ANOMALY":"246.1115","OBJECT_TYPE":"PAYLOAD","NORAD_CAT_ID":"53211","CLASSIFICATION_TYPE":"U","RCS_SIZE":"LARGE","MEAN_MOTION_DOT":"0.00001640","GP_ID":"223840944","COUNTRY_CODE":"US","BSTAR":"0.00013230000000","REF_FRAME":"TEME","EPHEMERIS_TYPE":"0","PERIAPSIS":"562.360","OBJECT_NAME":"STARLINK-4419","SEMIMAJOR_AXIS":"6941.163","DECAY_DATE":null,"FILE":"3763218","SITE":"AFWTR","TLE_LINE2":"2 53211  97.6612  90.7947 0000963 114.0210 246.1115 15.01254762 29259","RA_OF_ASC_NODE":"90.7947","APOAPSIS":"563.696","REV_AT_EPOCH":"2925","LAUNCH_DATE":"2022-07-22","INCLINATION":"97.6612","MEAN_MOTION":"15.01254762"},{"REF_FRAME":"TEME","BSTAR":"0.00008003400000","EPHEMERIS_TYPE":"0","COUNTRY_CODE":"US","PERIAPSIS":"562.468","SEMIMAJOR_AXIS":"6941.147","OBJECT_NAME":"STARLINK-4416","RA_OF_ASC_NODE":"90.7932","SITE":"AFWTR","TLE_LINE2":"2 53212  97.6607  90.7932 0000784 109.3752 250.7557 15.01259980 28737","DECAY_DATE":null,"FILE":"3763218","LAUNCH_DATE":"2022-07-22","INCLINATION":"97.6607","MEAN_MOTION":"15.01259980","REV_AT_EPOCH":"2873","APOAPSIS":"563.556","CENTER_NAME":"EARTH","PERIOD":"95.919","ELEMENT_SET_NO":"999","TLE_LINE1":"1 53212U 22084Z   23027.72863314  .00000969  00000-0  80034-4 0  9990","MEAN_MOTION_DDOT":"0.0000000000000","ARG_OF_PERICENTER":"109.3752","ECCENTRICITY":"0.00007840","EPOCH":"2023-01-27T17:29:13.903296","OBJECT_TYPE":"PAYLOAD","MEAN_ANOMALY":"250.7557","NORAD_CAT_ID":"53212","OBJECT_ID":"2022-084Z","TIME_SYSTEM":"UTC","MEAN_ELEMENT_THEORY":"SGP4","CLASSIFICATION_TYPE":"U","GP_ID":"223839701","RCS_SIZE":"MEDIUM","MEAN_MOTION_DOT":"0.00000969"},{"CLASSIFICATION_TYPE":"U","GP_ID":"223839949","MEAN_MOTION_DOT":"0.00000597","RCS_SIZE":"LARGE","ELEMENT_SET_NO":"999","PERIOD":"95.920","TLE_LINE1":"1 53213U 22084AA  23027.71937743  .00000597  00000-0  51051-4 0  9992","CENTER_NAME":"EARTH","EPOCH":"2023-01-27T17:15:54.209952","MEAN_MOTION_DDOT":"0.0000000000000","ARG_OF_PERICENTER":"97.2060","ECCENTRICITY":"0.00016870","NORAD_CAT_ID":"53213","OBJECT_TYPE":"PAYLOAD","MEAN_ANOMALY":"262.9356","MEAN_ELEMENT_THEORY":"SGP4","TIME_SYSTEM":"UTC","OBJECT_ID":"2022-084AA","RA_OF_ASC_NODE":"90.7999","TLE_LINE2":"2 53213  97.6595  90.7999 0001687  97.2060 262.9356 15.01257009 29257","SITE":"AFWTR","FILE":"3763218","DECAY_DATE":null,"INCLINATION":"97.6595","MEAN_MOTION":"15.01257009","LAUNCH_DATE":"2022-07-22","APOAPSIS":"564.192","REV_AT_EPOCH":"2925","EPHEMERIS_TYPE":"0","REF_FRAME":"TEME","BSTAR":"0.00005105100000","COUNTRY_CODE":"US","SEMIMAJOR_AXIS":"6941.156","OBJECT_NAME":"STARLINK-4414","PERIAPSIS":"561.850"},{"ARG_OF_PERICENTER":"99.8800","ECCENTRICITY":"0.00011930","MEAN_MOTION_DDOT":"0.0000000000000","EPOCH":"2023-01-27T17:26:34.116864","CENTER_NAME":"EARTH","TLE_LINE1":"1 53214U 22084AB  23027.72678376  .00000574  00000-0  49311-4 0  9999","ELEMENT_SET_NO":"999","PERIOD":"95.920","OBJECT_ID":"2022-084AB","MEAN_ELEMENT_THEORY":"SGP4","TIME_SYSTEM":"UTC","MEAN_ANOMALY":"260.2559","OBJECT_TYPE":"PAYLOAD","NORAD_CAT_ID":"53214","CLASSIFICATION_TYPE":"U","RCS_SIZE":"LARGE","MEAN_MOTION_DOT":"0.00000574","GP_ID":"223840696","COUNTRY_CODE":"US","BSTAR":"0.00004931100000","REF_FRAME":"TEME","EPHEMERIS_TYPE":"0","PERIAPSIS":"562.192","OBJECT_NAME":"STARLINK-4353","SEMIMAJOR_AXIS":"6941.155","DECAY_DATE":null,"FILE":"3763218","SITE":"AFWTR","TLE_LINE2":"2 53214  97.6616  90.7946 0001193  99.8800 260.2559 15.01257324 28734","RA_OF_ASC_NODE":"90.7946","REV_AT_EPOCH":"2873","APOAPSIS":"563.848","LAUNCH_DATE":"2022-07-22","MEAN_MOTION":"15.01257324","INCLINATION":"97.6616"},{"OBJECT_NAME":"STARLINK-4335","SEMIMAJOR_AXIS":"6941.146","PERIAPSIS":"561.826","COUNTRY_CODE":"US","EPHEMERIS_TYPE":"0","BSTAR":"0.00007194200000","REF_FRAME":"TEME","REV_AT_EPOCH":"2925","APOAPSIS":"564.197","INCLINATION":"97.6575","MEAN_MOTION":"15.01260150","LAUNCH_DATE":"2022-07-22","FILE":"3763218","DECAY_DATE":null,"SITE":"AFWTR","TLE_LINE2":"2 53215  97.6575  90.7972 0001708 100.1905 259.9512 15.01260150 29255","RA_OF_ASC_NODE":"90.7972","MEAN_ELEMENT_THEORY":"SGP4","TIME_SYSTEM":"UTC","OBJECT_ID":"2022-084AC","NORAD_CAT_ID":"53215","MEAN_ANOMALY":"259.9512","OBJECT_TYPE":"PAYLOAD","EPOCH":"2023-01-27T17:13:14.107296","ARG_OF_PERICENTER":"100.1905","ECCENTRICITY":"0.00017080","MEAN_MOTION_DDOT":"0.0000000000000","TLE_LINE1":"1 53215U 22084AC  23027.71752439  .00000865  00000-0  71942-4 0  9990","PERIOD":"95.919","ELEMENT_SET_NO":"999","CENTER_NAME":"EARTH","MEAN_MOTION_DOT":"0.00000865","RCS_SIZE":"LARGE","GP_ID":"223841441","CLASSIFICATION_TYPE":"U"},{"FILE":"3763106","DECAY_DATE":null,"SITE":"AFWTR","TLE_LINE2":"2 53216  97.6616  90.8602 0001427 106.0463 254.0918 15.01255867 29126","RA_OF_ASC_NODE":"90.8602","APOAPSIS":"564.015","REV_AT_EPOCH":"2912","MEAN_MOTION":"15.01255867","INCLINATION":"97.6616","LAUNCH_DATE":"2022-07-22","COUNTRY_CODE":"US","EPHEMERIS_TYPE":"0","BSTAR":"-0.00010169000000","REF_FRAME":"TEME","OBJECT_NAME":"STARLINK-4376","SEMIMAJOR_AXIS":"6941.160","PERIAPSIS":"562.034","CLASSIFICATION_TYPE":"U","MEAN_MOTION_DOT":"-0.00001365","RCS_SIZE":"LARGE","GP_ID":"223813427","EPOCH":"2023-01-27T18:57:12.555360","ARG_OF_PERICENTER":"106.0463","ECCENTRICITY":"0.00014270","MEAN_MOTION_DDOT":"0.0000000000000","TLE_LINE1":"1 53216U 22084AD  23027.78972865 -.00001365  00000-0 -10169-3 0  9996","PERIOD":"95.920","ELEMENT_SET_NO":"999","CENTER_NAME":"EARTH","TIME_SYSTEM":"UTC","MEAN_ELEMENT_THEORY":"SGP4","OBJECT_ID":"2022-084AD","NORAD_CAT_ID":"53216","MEAN_ANOMALY":"254.0918","OBJECT_TYPE":"PAYLOAD"}];
